start=new Date('2022-08-09T00:00:00.000Z').valueOf();
sats=[{"APOAPSIS":"541.263","MEAN_MOTION_DDOT":"0.0000000000000","OBJECT_NAME":"STARLINK-3633","GP_ID":"209862510","EPOCH":"2022-08-08T22:00:00.999936","EPHEMERIS_TYPE":"0","LAUNCH_DATE":"2022-02-25","RA_OF_ASC_NODE":"104.4304","SEMIMAJOR_AXIS":"6917.774","CLASSIFICATION_TYPE":"U","OBJECT_TYPE":"PAYLOAD","MEAN_ANOMALY":"147.1898","PERIOD":"95.435","DECAY_DATE":null,"OBJECT_ID":"2022-017AB","INCLINATION":"53.2172","ECCENTRICITY":"0.00023470","NORAD_CAT_ID":"51793","ARG_OF_PERICENTER":"63.0747","MEAN_MOTION_DOT":"-0.00040625","BSTAR":"-0.00254630000000","FILE":"3532305","REF_FRAME":"TEME","ELEMENT_SET_NO":"999","TLE_LINE1":"1 51793U 22017AB  22220.91667824 -.00040625  00000-0 -25463-2 0  9999","TLE_LINE2":"2 51793  53.2172 104.4304 0002347  63.0747 147.1898 15.08874683  1308","REV_AT_EPOCH":"130","TIME_SYSTEM":"UTC","COUNTRY_CODE":"US","PERIAPSIS":"538.016","RCS_SIZE":"LARGE","CENTER_NAME":"EARTH","MEAN_ELEMENT_THEORY":"SGP4","SITE":"AFWTR","MEAN_MOTION":"15.08874683"},{"SITE":"AFWTR","MEAN_MOTION":"15.08861328","MEAN_ELEMENT_THEORY":"SGP4","CENTER_NAME":"EARTH","RCS_SIZE":"LARGE","PERIAPSIS":"538.587","COUNTRY_CODE":"US","TIME_SYSTEM":"UTC","REV_AT_EPOCH":"130","TLE_LINE2":"2 51794  53.2167 104.4445 0001580  69.6082 260.6756 15.08861328  1307","TLE_LINE1":"1 51794U 22017AC  22220.91667824 -.00016504  00000-0 -10206-2 0  9998","ELEMENT_SET_NO":"999","FILE":"3532305","BSTAR":"-0.00102060000000","REF_FRAME":"TEME","MEAN_MOTION_DOT":"-0.00016504","ARG_OF_PERICENTER":"69.6082","NORAD_CAT_ID":"51794","ECCENTRICITY":"0.00015800","INCLINATION":"53.2167","OBJECT_ID":"2022-017AC","PERIOD":"95.436","DECAY_DATE":null,"MEAN_ANOMALY":"260.6756","OBJECT_TYPE":"PAYLOAD","CLASSIFICATION_TYPE":"U","SEMIMAJOR_AXIS":"6917.815","RA_OF_ASC_NODE":"104.4445","LAUNCH_DATE":"2022-02-25","EPHEMERIS_TYPE":"0","EPOCH":"2022-08-08T22:00:00.999936","GP_ID":"209863761","OBJECT_NAME":"STARLINK-3573","MEAN_MOTION_DDOT":"0.0000000000000","APOAPSIS":"540.773"},{"EPHEMERIS_TYPE":"0","LAUNCH_DATE":"2022-02-25","RA_OF_ASC_NODE":"104.4438","APOAPSIS":"540.832","MEAN_MOTION_DDOT":"0.0000000000000","OBJECT_NAME":"STARLINK-3586","GP_ID":"209864012","EPOCH":"2022-08-08T22:00:00.999936","ECCENTRICITY":"0.00016950","NORAD_CAT_ID":"51795","ARG_OF_PERICENTER":"68.5032","MEAN_MOTION_DOT":"-0.00031770","SEMIMAJOR_AXIS":"6917.795","CLASSIFICATION_TYPE":"U","MEAN_ANOMALY":"241.7923","OBJECT_TYPE":"PAYLOAD","DECAY_DATE":null,"PERIOD":"95.436","OBJECT_ID":"2022-017AD","INCLINATION":"53.2181","REV_AT_EPOCH":"130","TIME_SYSTEM":"UTC","BSTAR":"-0.00198530000000","FILE":"3532305","REF_FRAME":"TEME","TLE_LINE1":"1 51795U 22017AD  22220.91667824 -.00031770  00000-0 -19853-2 0  9998","ELEMENT_SET_NO":"999","TLE_LINE2":"2 51795  53.2181 104.4438 0001695  68.5032 241.7923 15.08868044  1304","RCS_SIZE":"LARGE","CENTER_NAME":"EARTH","MEAN_ELEMENT_THEORY":"SGP4","SITE":"AFWTR","MEAN_MOTION":"15.08868044","COUNTRY_CODE":"US","PERIAPSIS":"538.487"},{"MEAN_MOTION_DOT":"-0.00052993","NORAD_CAT_ID":"51796","ARG_OF_PERICENTER":"64.3746","ECCENTRICITY":"0.00022560","INCLINATION":"53.2165","PERIOD":"95.435","DECAY_DATE":null,"OBJECT_ID":"2022-017AE","CLASSIFICATION_TYPE":"U","MEAN_ANOMALY":"325.9093","OBJECT_TYPE":"PAYLOAD","SEMIMAJOR_AXIS":"6917.762","RA_OF_ASC_NODE":"104.4298","EPHEMERIS_TYPE":"0","LAUNCH_DATE":"2022-02-25","EPOCH":"2022-08-08T22:00:00.999936","OBJECT_NAME":"STARLINK-3630","GP_ID":"209836020","MEAN_MOTION_DDOT":"0.0000000000000","APOAPSIS":"541.188","SITE":"AFWTR","MEAN_MOTION":"15.08878637","MEAN_ELEMENT_THEORY":"SGP4","CENTER_NAME":"EARTH","RCS_SIZE":"LARGE","PERIAPSIS":"538.067","COUNTRY_CODE":"US","TIME_SYSTEM":"UTC","REV_AT_EPOCH":"2633","TLE_LINE2":"2 51796  53.2165 104.4298 0002256  64.3746 325.9093 15.08878637 26333","FILE":"3532142","BSTAR":"-0.00333250000000","REF_FRAME":"TEME","ELEMENT_SET_NO":"999","TLE_LINE1":"1 51796U 22017AE  22220.91667824 -.00052993  00000-0 -33325-2 0  9999"},{"PERIAPSIS":"538.488","COUNTRY_CODE":"US","CENTER_NAME":"EARTH","MEAN_ELEMENT_THEORY":"SGP4","MEAN_MOTION":"15.08859685","SITE":"AFWTR","RCS_SIZE":"LARGE","TLE_LINE2":"2 51797  53.2166 104.4449 0001731  57.3328 212.9369 15.08859685  1301","TLE_LINE1":"1 51797U 22017AF  22220.91667824 -.00048032  00000-0 -30184-2 0  9999","ELEMENT_SET_NO":"999","FILE":"3532305","BSTAR":"-0.00301840000000","REF_FRAME":"TEME","REV_AT_EPOCH":"130","TIME_SYSTEM":"UTC","OBJECT_ID":"2022-017AF","PERIOD":"95.436","DECAY_DATE":null,"INCLINATION":"53.2166","SEMIMAJOR_AXIS":"6917.820","OBJECT_TYPE":"PAYLOAD","MEAN_ANOMALY":"212.9369","CLASSIFICATION_TYPE":"U","ARG_OF_PERICENTER":"57.3328","NORAD_CAT_ID":"51797","MEAN_MOTION_DOT":"-0.00048032","ECCENTRICITY":"0.00017310","GP_ID":"209863010","OBJECT_NAME":"STARLINK-3627","EPOCH":"2022-08-08T22:00:00.999936","APOAPSIS":"540.883","MEAN_MOTION_DDOT":"0.0000000000000","RA_OF_ASC_NODE":"104.4449","LAUNCH_DATE":"2022-02-25","EPHEMERIS_TYPE":"0"},{"RA_OF_ASC_NODE":"104.4242","LAUNCH_DATE":"2022-02-25","EPHEMERIS_TYPE":"0","EPOCH":"2022-08-08T22:00:00.999936","OBJECT_NAME":"STARLINK-3634","GP_ID":"209863262","MEAN_MOTION_DDOT":"0.0000000000000","APOAPSIS":"540.988","MEAN_MOTION_DOT":"-0.00057411","NORAD_CAT_ID":"51798","ARG_OF_PERICENTER":"61.0212","ECCENTRICITY":"0.00019610","INCLINATION":"53.2159","PERIOD":"95.435","DECAY_DATE":null,"OBJECT_ID":"2022-017AG","CLASSIFICATION_TYPE":"U","MEAN_ANOMALY":"349.2776","OBJECT_TYPE":"PAYLOAD","SEMIMAJOR_AXIS":"6917.767","TIME_SYSTEM":"UTC","REV_AT_EPOCH":"130","TLE_LINE2":"2 51798  53.2159 104.4242 0001961  61.0212 349.2776 15.08877194  1305","BSTAR":"-0.00361430000000","FILE":"3532305","REF_FRAME":"TEME","TLE_LINE1":"1 51798U 22017AG  22220.91667824 -.00057411  00000-0 -36143-2 0  9992","ELEMENT_SET_NO":"999","MEAN_MOTION":"15.08877194","SITE":"AFWTR","CENTER_NAME":"EARTH","MEAN_ELEMENT_THEORY":"SGP4","RCS_SIZE":"LARGE","PERIAPSIS":"538.275","COUNTRY_CODE":"US"},{"EPHEMERIS_TYPE":"0","LAUNCH_DATE":"2022-02-25","RA_OF_ASC_NODE":"104.4422","MEAN_MOTION_DDOT":"0.0000000000000","APOAPSIS":"541.056","EPOCH":"2022-08-08T22:00:00.999936","GP_ID":"209863513","OBJECT_NAME":"STARLINK-3637","ECCENTRICITY":"0.00019980","MEAN_MOTION_DOT":"-0.00027358","ARG_OF_PERICENTER":"61.9697","NORAD_CAT_ID":"51799","OBJECT_TYPE":"PAYLOAD","MEAN_ANOMALY":"288.3266","CLASSIFICATION_TYPE":"U","SEMIMAJOR_AXIS":"6917.809","INCLINATION":"53.2181","OBJECT_ID":"2022-017AH","DECAY_DATE":null,"PERIOD":"95.436","TIME_SYSTEM":"UTC","REV_AT_EPOCH":"130","TLE_LINE1":"1 51799U 22017AH  22220.91667824 -.00027358  00000-0 -17062-2 0  9999","ELEMENT_SET_NO":"999","FILE":"3532305","BSTAR":"-0.00170620000000","REF_FRAME":"TEME","TLE_LINE2":"2 51799  53.2181 104.4422 0001998  61.9697 288.3266 15.08863391  1308","RCS_SIZE":"LARGE","MEAN_MOTION":"15.08863391","SITE":"AFWTR","MEAN_ELEMENT_THEORY":"SGP4","CENTER_NAME":"EARTH","COUNTRY_CODE":"US","PERIAPSIS":"538.292"},{"INCLINATION":"53.2173","PERIOD":"95.436","DECAY_DATE":null,"OBJECT_ID":"2022-017AJ","CLASSIFICATION_TYPE":"U","MEAN_ANOMALY":"18.6165","OBJECT_TYPE":"PAYLOAD","SEMIMAJOR_AXIS":"6917.810","MEAN_MOTION_DOT":"-0.00029661","NORAD_CAT_ID":"51800","ARG_OF_PERICENTER":"66.4795","ECCENTRICITY":"0.00019600","EPOCH":"2022-08-08T22:00:00.999936","OBJECT_NAME":"STARLINK-3600","GP_ID":"209862261","MEAN_MOTION_DDOT":"0.0000000000000","APOAPSIS":"541.031","RA_OF_ASC_NODE":"104.4246","EPHEMERIS_TYPE":"0","LAUNCH_DATE":"2022-02-25","PERIAPSIS":"538.319","COUNTRY_CODE":"US","SITE":"AFWTR","MEAN_MOTION":"15.08863122","MEAN_ELEMENT_THEORY":"SGP4","CENTER_NAME":"EARTH","RCS_SIZE":"LARGE","TLE_LINE2":"2 51800  53.2173 104.4246 0001960  66.4795  18.6165 15.08863122  1308","BSTAR":"-0.00185200000000","FILE":"3532305","REF_FRAME":"TEME","TLE_LINE1":"1 51800U 22017AJ  22220.91667824 -.00029661  00000-0 -18520-2 0  9991","ELEMENT_SET_NO":"999","TIME_SYSTEM":"UTC","REV_AT_EPOCH":"130"},{"SEMIMAJOR_AXIS":"6917.735","MEAN_ANOMALY":"301.1137","OBJECT_TYPE":"PAYLOAD","CLASSIFICATION_TYPE":"U","OBJECT_ID":"2022-017AK","PERIOD":"95.435","DECAY_DATE":null,"INCLINATION":"53.2163","ECCENTRICITY":"0.00022650","ARG_OF_PERICENTER":"69.1655","NORAD_CAT_ID":"51801","MEAN_MOTION_DOT":"-0.00064162","APOAPSIS":"541.167","MEAN_MOTION_DDOT":"0.0000000000000","GP_ID":"209862511","OBJECT_NAME":"STARLINK-3592","EPOCH":"2022-08-08T22:00:00.999936","EPHEMERIS_TYPE":"0","LAUNCH_DATE":"2022-02-25","RA_OF_ASC_NODE":"104.4230","COUNTRY_CODE":"US","PERIAPSIS":"538.033","RCS_SIZE":"LARGE","MEAN_ELEMENT_THEORY":"SGP4","CENTER_NAME":"EARTH","MEAN_MOTION":"15.08887470","SITE":"AFWTR","TLE_LINE1":"1 51801U 22017AK  22220.91667824 -.00064162  00000-0 -40440-2 0  9993","ELEMENT_SET_NO":"999","BSTAR":"-0.00404400000000","FILE":"3532305","REF_FRAME":"TEME","TLE_LINE2":"2 51801  53.2163 104.4230 0002265  69.1655 301.1137 15.08887470  1306","REV_AT_EPOCH":"130","TIME_SYSTEM":"UTC"},{"REV_AT_EPOCH":"2633","TIME_SYSTEM":"UTC","TLE_LINE2":"2 51802  53.2165 104.4457 0002315  69.7363 195.3443 15.08884570 26339","ELEMENT_SET_NO":"999","TLE_LINE1":"1 51802U 22017AL  22220.91667824 -.00053887  00000-0 -33889-2 0  9995","BSTAR":"-0.00338890000000","FILE":"3532145","REF_FRAME":"TEME","CENTER_NAME":"EARTH","MEAN_ELEMENT_THEORY":"SGP4","SITE":"AFWTR","MEAN_MOTION":"15.08884570","RCS_SIZE":"LARGE","PERIAPSIS":"538.008","COUNTRY_CODE":"US","RA_OF_ASC_NODE":"104.4457","LAUNCH_DATE":"2022-02-25","EPHEMERIS_TYPE":"0","GP_ID":"209836054","OBJECT_NAME":"STARLINK-3557","EPOCH":"2022-08-08T22:00:00.999936","APOAPSIS":"541.211","MEAN_MOTION_DDOT":"0.0000000000000","ARG_OF_PERICENTER":"69.7363","NORAD_CAT_ID":"51802","MEAN_MOTION_DOT":"-0.00053887","ECCENTRICITY":"0.00023150","OBJECT_ID":"2022-017AL","DECAY_DATE":null,"PERIOD":"95.435","INCLINATION":"53.2165","SEMIMAJOR_AXIS":"6917.744","MEAN_ANOMALY":"195.3443","OBJECT_TYPE":"PAYLOAD","CLASSIFICATION_TYPE":"U"}];
